[{"OBJECT_NAME":"STARLINK-30327","OBJECT_ID":"2023-129K","EPOCH":"2026-03-09T12:25:28.993152","MEAN_MOTION":15.26626807,"ECCENTRICITY":0.00230309,"INCLINATION":42.9974,"RA_OF_ASC_NODE":85.9834,"ARG_OF_PERICENTER":70.832,"MEAN_ANOMALY":289.5022,"EPHEMERIS_TYPE":0,"CLASSIFICATION_TYPE":"U","NORAD_CAT_ID":57707,"ELEMENT_SET_NO":999,"REV_AT_EPOCH":14090,"BSTAR":0.00029313824,"MEAN_MOTION_DOT":7.635e-5,"MEAN_MOTION_DDOT":0},{"OBJECT_NAME":"STARLINK-35320","OBJECT_ID":"2025-221M","EPOCH":"2026-03-09T18:48:58.534848","MEAN_MOTION":15.30207074,"ECCENTRICITY":0.00013746,"INCLINATION":53.1599,"RA_OF_ASC_NODE":88.2034,"ARG_OF_PERICENTER":82.3549,"MEAN_ANOMALY":277.7608,"EPHEMERIS_TYPE":0,"CLASSIFICATION_TYPE":"U","NORAD_CAT_ID":65834,"ELEMENT_SET_NO":999,"REV_AT_EPOCH":2474,"BSTAR":0.00076148063,"MEAN_MOTION_DOT":0.00022266,"MEAN_MOTION_DDOT":0}]
