STARLINK-30327          
1 57707U 23129K   26068.51769668  .00007635  00000+0  29314-3 0  9995
2 57707  42.9974  85.9834 0023030  70.8320 289.5022 15.26626807140903
STARLINK-35320          
1 65834U 25221M   26068.78401082  .00022266  00000+0  76148-3 0  9996
2 65834  53.1599  88.2034 0001375  82.3549 277.7608 15.30207074 24745
